{
"type": "FeatureCollection",
"name": "batas_wilayah_annuur_ln",
"crs": { "type": "name", "properties": { "name": "urn:ogc:def:crs:OGC:1.3:CRS84" } },
"features": [
{ "type": "Feature", "properties": { "Remark": "Batas wilayah jamaah Masjid An-Nuur", "Color": "#33a02c" }, "geometry": { "type": "MultiLineString", "coordinates": [ [ [ 110.397090821033473, -7.814796098535806 ], [ 110.397064082064119, -7.815087495453601 ], [ 110.397052198077702, -7.815249382542313 ], [ 110.397007633128823, -7.815626137705558 ], [ 110.396974952166261, -7.8159499114023 ], [ 110.396951184193426, -7.816102967971408 ], [ 110.396443143775599, -7.816044100066901 ], [ 110.395955900334187, -7.816079420810653 ], [ 110.395753872565635, -7.816070590625004 ], [ 110.395593438749529, -7.816058817043783 ], [ 110.395531047820924, -7.815997005737221 ], [ 110.395545902803946, -7.815864552906562 ], [ 110.395599380742652, -7.815623194307144 ], [ 110.395646916688236, -7.815308250558908 ], [ 110.395646916688236, -7.815272929749875 ], [ 110.39540032397079, -7.815249382542313 ], [ 110.395052717369154, -7.815205231524271 ], [ 110.394651632828726, -7.815137533287744 ], [ 110.394274316261132, -7.815090438855834 ], [ 110.394324823203235, -7.814545909100681 ], [ 110.394360475162387, -7.814342814037158 ], [ 110.394580328910493, -7.814375191517677 ], [ 110.395002210426966, -7.814445833284602 ], [ 110.39525474513762, -7.814489984382935 ], [ 110.395222064174973, -7.814672475539521 ], [ 110.395480540878836, -7.814704852994461 ], [ 110.39548351187544, -7.814342814037158 ], [ 110.395501337854981, -7.813904246099281 ], [ 110.395536989814133, -7.813377375282884 ], [ 110.395753872565535, -7.813365601625812 ], [ 110.396172783085419, -7.813371488454348 ], [ 110.396175754082108, -7.813651112717381 ], [ 110.396146044116065, -7.813877755403689 ], [ 110.396463940751744, -7.813892472457042 ], [ 110.396449085768808, -7.81411617160336 ], [ 110.396431259789281, -7.814386965146416 ], [ 110.396437201782391, -7.814572399753819 ], [ 110.396695678486253, -7.814613607433221 ], [ 110.396859083298963, -7.814607720622093 ], [ 110.397102705019805, -7.814640098082095 ], [ 110.397090821033473, -7.814796098535806 ] ] ] } }
]
}
