{
"type": "FeatureCollection",
"name": "batas_wilayah_annuur_ar",
"crs": { "type": "name", "properties": { "name": "urn:ogc:def:crs:OGC:1.3:CRS84" } },
"features": [
{ "type": "Feature", "properties": { "Id": 0, "Wilayah": "Sebagian Pelemsari RT 03, sebagian kecil Depokan RT 04, sebagian Depokan RT 07, Peleman RT 30 dan sebagian kecil Pelemrejo RT 30", "Jml_KK": 200, "Color": "#33a02c" }, "geometry": { "type": "MultiPolygon", "coordinates": [ [ [ [ 110.397090821033501, -7.81479609853579 ], [ 110.397064082064134, -7.8150874954536 ], [ 110.397052198077716, -7.815249382542272 ], [ 110.397007633128837, -7.815626137705529 ], [ 110.396974952166232, -7.815949911402279 ], [ 110.396951184193469, -7.81610296797144 ], [ 110.396443143775642, -7.816044100066894 ], [ 110.395955900334144, -7.816079420810617 ], [ 110.395753872565635, -7.816070590624989 ], [ 110.395593438749515, -7.816058817043819 ], [ 110.395531047820967, -7.815997005737194 ], [ 110.395545902803974, -7.815864552906599 ], [ 110.395599380742681, -7.815623194307113 ], [ 110.395646916688221, -7.815308250558888 ], [ 110.395646916688221, -7.8152729297499 ], [ 110.395400323970776, -7.815249382542272 ], [ 110.395052717369154, -7.815205231524299 ], [ 110.394651632828754, -7.815137533287705 ], [ 110.394274316261118, -7.815090438855794 ], [ 110.394324823203235, -7.814545909100659 ], [ 110.394360475162415, -7.814342814037199 ], [ 110.394580328910507, -7.814375191517717 ], [ 110.395002210426952, -7.814445833284618 ], [ 110.395254745137578, -7.814489984382895 ], [ 110.395222064174988, -7.814672475539499 ], [ 110.395480540878836, -7.814704852994459 ], [ 110.395483511875426, -7.814342814037199 ], [ 110.395501337854952, -7.813904246099263 ], [ 110.395536989814147, -7.813377375282901 ], [ 110.395753872565507, -7.81336560162578 ], [ 110.396172783085447, -7.813371488454378 ], [ 110.396175754082094, -7.813651112717388 ], [ 110.39614604411608, -7.813877755403705 ], [ 110.396463940751758, -7.813892472457066 ], [ 110.396449085768822, -7.81411617160333 ], [ 110.396431259789296, -7.814386965146379 ], [ 110.396437201782405, -7.814572399753827 ], [ 110.396695678486267, -7.814613607433217 ], [ 110.396859083298992, -7.814607720622074 ], [ 110.397102705019776, -7.814640098082097 ], [ 110.397090821033501, -7.81479609853579 ] ] ] ] } }
]
}
